[
    {
        "Altitude(m)": 703048.7968148954,
        "Argument of Periapsis(deg)": 0.0034170363559881197,
        "Eccentricity": 0.0,
        "Inclination(deg)": 45.0,
        "Latitude(deg)": 20.280104699298285,
        "Longitude(deg)": 138.22608229521697,
        "Mean Anomaly(deg)": 150.73266499424423,
        "RAAN(deg)": 79.99677441756253,
        "Satellite Name": "Constellation 1 361",
        "Satellite Number": 361,
        "Semi-Major Axis(m)": 7083131.272910544,
        "Time(s)": 57
    },
    {
        "Altitude(m)": 703045.4168720394,
        "Argument of Periapsis(deg)": 0.003476984362233526,
        "Eccentricity": 0.0,
        "Inclination(deg)": 45.0,
        "Latitude(deg)": 20.239937634685354,
        "Longitude(deg)": 138.2706499172257,
        "Mean Anomaly(deg)": 150.7933661344941,
        "RAAN(deg)": 79.99671782839697,
        "Satellite Name": "Constellation 1 361",
        "Satellite Number": 361,
        "Semi-Major Axis(m)": 7083131.272910544,
        "Time(s)": 58
    },
    {
        "Altitude(m)": 703042.0506519796,
        "Argument of Periapsis(deg)": 0.003536932368478932,
        "Eccentricity": 0.0,
        "Inclination(deg)": 45.0,
        "Latitude(deg)": 20.199756911678488,
        "Longitude(deg)": 138.3151923529976,
        "Mean Anomaly(deg)": 150.854067274744,
        "RAAN(deg)": 79.9966612392314,
        "Satellite Name": "Constellation 1 361",
        "Satellite Number": 361,
        "Semi-Major Axis(m)": 7083131.272910544,
        "Time(s)": 59
    },
    {
        "Altitude(m)": 703038.698186562,
        "Argument of Periapsis(deg)": 0.003596880374724337,
        "Eccentricity": 0.0,
        "Inclination(deg)": 45.0,
        "Latitude(deg)": 20.159562566513813,
        "Longitude(deg)": 138.35970999705853,
        "Mean Anomaly(deg)": 150.91476841499397,
        "RAAN(deg)": 79.99660465006582,
        "Satellite Name": "Constellation 1 361",
        "Satellite Number": 361,
        "Semi-Major Axis(m)": 7083131.272910544,
        "Time(s)": 60
    },
    {
        "Altitude(m)": 703035.359507593,
        "Argument of Periapsis(deg)": 0.0036568283809697427,
        "Eccentricity": 0.0,
        "Inclination(deg)": 45.0,
        "Latitude(deg)": 20.119354635379054,
        "Longitude(deg)": 138.40420273961493,
        "Mean Anomaly(deg)": 150.97546955524382,
        "RAAN(deg)": 79.99654806090025,
        "Satellite Name": "Constellation 1 361",
        "Satellite Number": 361,
        "Semi-Major Axis(m)": 7083131.272910544,
        "Time(s)": 61
    },
    {
        "Altitude(m)": 703032.0346468156,
        "Argument of Periapsis(deg)": 0.003716776387215149,
        "Eccentricity": 0.0,
        "Inclination(deg)": 45.0,
        "Latitude(deg)": 20.079133154412265,
        "Longitude(deg)": 138.44867063894307,
        "Mean Anomaly(deg)": 151.03617069549375,
        "RAAN(deg)": 79.99649147173469,
        "Satellite Name": "Constellation 1 361",
        "Satellite Number": 361,
        "Semi-Major Axis(m)": 7083131.272910544,
        "Time(s)": 62
    },
    {
        "Altitude(m)": 703028.7236359229,
        "Argument of Periapsis(deg)": 0.003776724393460554,
        "Eccentricity": 0.0,
        "Inclination(deg)": 45.0,
        "Latitude(deg)": 20.03889815970273,
        "Longitude(deg)": 138.49311375329094,
        "Mean Anomaly(deg)": 151.0968718357436,
        "RAAN(deg)": 79.99643488256912,
        "Satellite Name": "Constellation 1 361",
        "Satellite Number": 361,
        "Semi-Major Axis(m)": 7083131.272910544,
        "Time(s)": 63
    },
    {
        "Altitude(m)": 703025.4265065639,
        "Argument of Periapsis(deg)": 0.003836672399705959,
        "Eccentricity": 0.0,
        "Inclination(deg)": 45.0,
        "Latitude(deg)": 19.998649687290538,
        "Longitude(deg)": 138.53753214087894,
        "Mean Anomaly(deg)": 151.15757297599353,
        "RAAN(deg)": 79.99637829340355,
        "Satellite Name": "Constellation 1 361",
        "Satellite Number": 361,
        "Semi-Major Axis(m)": 7083131.272910544,
        "Time(s)": 64
    },
    {
        "Altitude(m)": 703022.1432903197,
        "Argument of Periapsis(deg)": 0.003896620405951365,
        "Eccentricity": 0.0,
        "Inclination(deg)": 45.0,
        "Latitude(deg)": 19.958387773167217,
        "Longitude(deg)": 138.58192585989931,
        "Mean Anomaly(deg)": 151.21827411624346,
        "RAAN(deg)": 79.99632170423797,
        "Satellite Name": "Constellation 1 361",
        "Satellite Number": 361,
        "Semi-Major Axis(m)": 7083131.272910544,
        "Time(s)": 65
    },
    {
        "Altitude(m)": 703018.8740187328,
        "Argument of Periapsis(deg)": 0.003956568412196771,
        "Eccentricity": 0.0,
        "Inclination(deg)": 45.0,
        "Latitude(deg)": 19.91811245327551,
        "Longitude(deg)": 138.62629496851608,
        "Mean Anomaly(deg)": 151.2789752564933,
        "RAAN(deg)": 79.9962651150724,
        "Satellite Name": "Constellation 1 361",
        "Satellite Number": 361,
        "Semi-Major Axis(m)": 7083131.272910544,
        "Time(s)": 66
    },
    {
        "Altitude(m)": 703015.6187232883,
        "Argument of Periapsis(deg)": 0.004016516418442176,
        "Eccentricity": 0.0,
        "Inclination(deg)": 45.0,
        "Latitude(deg)": 19.877823763509756,
        "Longitude(deg)": 138.6706393567681,
        "Mean Anomaly(deg)": 151.33967639674324,
        "RAAN(deg)": 79.99620852590684,
        "Satellite Name": "Constellation 1 361",
        "Satellite Number": 361,
        "Semi-Major Axis(m)": 7083131.272910544,
        "Time(s)": 67
    },
    {
        "Altitude(m)": 703012.3774354055,
        "Argument of Periapsis(deg)": 0.004076464424687581,
        "Eccentricity": 0.0,
        "Inclination(deg)": 45.0,
        "Latitude(deg)": 19.83752173971534,
        "Longitude(deg)": 138.7149594189573,
        "Mean Anomaly(deg)": 151.40037753699315,
        "RAAN(deg)": 79.99615193674128,
        "Satellite Name": "Constellation 1 361",
        "Satellite Number": 361,
        "Semi-Major Axis(m)": 7083131.272910544,
        "Time(s)": 68
    },
    {
        "Altitude(m)": 703009.1501864699,
        "Argument of Periapsis(deg)": 0.004136412430932987,
        "Eccentricity": 0.0,
        "Inclination(deg)": 45.0,
        "Latitude(deg)": 19.79720641768979,
        "Longitude(deg)": 138.7592550450659,
        "Mean Anomaly(deg)": 151.46107867724302,
        "RAAN(deg)": 79.9960953475757,
        "Satellite Name": "Constellation 1 361",
        "Satellite Number": 361,
        "Semi-Major Axis(m)": 7083131.272910544,
        "Time(s)": 69
    },
    {
        "Altitude(m)": 703005.9370078004,
        "Argument of Periapsis(deg)": 0.004196360437178394,
        "Eccentricity": 0.0,
        "Inclination(deg)": 45.0,
        "Latitude(deg)": 19.756877833182262,
        "Longitude(deg)": 138.80352629314493,
        "Mean Anomaly(deg)": 151.52177981749293,
        "RAAN(deg)": 79.99603875841014,
        "Satellite Name": "Constellation 1 361",
        "Satellite Number": 361,
        "Semi-Major Axis(m)": 7083131.272910544,
        "Time(s)": 70
    },
    {
        "Altitude(m)": 703002.7379306707,
        "Argument of Periapsis(deg)": 0.004256308443423799,
        "Eccentricity": 0.0,
        "Inclination(deg)": 45.0,
        "Latitude(deg)": 19.716536021893855,
        "Longitude(deg)": 138.84777322121676,
        "Mean Anomaly(deg)": 151.5824809577428,
        "RAAN(deg)": 79.99598216924457,
        "Satellite Name": "Constellation 1 361",
        "Satellite Number": 361,
        "Semi-Major Axis(m)": 7083131.272910544,
        "Time(s)": 71
    },
    {
        "Altitude(m)": 702999.5529862884,
        "Argument of Periapsis(deg)": 0.004316256449669204,
        "Eccentricity": 0.0,
        "Inclination(deg)": 45.0,
        "Latitude(deg)": 19.676181019477532,
        "Longitude(deg)": 138.89199588727533,
        "Mean Anomaly(deg)": 151.64318209799274,
        "RAAN(deg)": 79.99592558007899,
        "Satellite Name": "Constellation 1 361",
        "Satellite Number": 361,
        "Semi-Major Axis(m)": 7083131.272910544,
        "Time(s)": 72
    },
    {
        "Altitude(m)": 702996.3822058178,
        "Argument of Periapsis(deg)": 0.00437620445591461,
        "Eccentricity": 0.0,
        "Inclination(deg)": 45.0,
        "Latitude(deg)": 19.635812861538557,
        "Longitude(deg)": 138.9361943492859,
        "Mean Anomaly(deg)": 151.7038832382426,
        "RAAN(deg)": 79.99586899091342,
        "Satellite Name": "Constellation 1 361",
        "Satellite Number": 361,
        "Semi-Major Axis(m)": 7083131.272910544,
        "Time(s)": 73
    },
    {
        "Altitude(m)": 702993.2256203683,
        "Argument of Periapsis(deg)": 0.004436152462160016,
        "Eccentricity": 0.0,
        "Inclination(deg)": 45.0,
        "Latitude(deg)": 19.595431583634532,
        "Longitude(deg)": 138.98036849708794,
        "Mean Anomaly(deg)": 151.76458437849254,
        "RAAN(deg)": 79.99581240174784,
        "Satellite Name": "Constellation 1 361",
        "Satellite Number": 361,
        "Semi-Major Axis(m)": 7083131.272910544,
        "Time(s)": 74
    },
    {
        "Altitude(m)": 702990.0832609888,
        "Argument of Periapsis(deg)": 0.0044961004684054215,
        "Eccentricity": 0.0,
        "Inclination(deg)": 45.0,
        "Latitude(deg)": 19.55503722127489,
        "Longitude(deg)": 139.02451872478338,
        "Mean Anomaly(deg)": 151.8252855187424,
        "RAAN(deg)": 79.99575581258229,
        "Satellite Name": "Constellation 1 361",
        "Satellite Number": 361,
        "Semi-Major Axis(m)": 7083131.272910544,
        "Time(s)": 75
    }
]